{"type": "FeatureCollection", "features": [{"type": "Feature", "properties": {"norad_id": 24876, "name": "GPS BIIR-2  (PRN 13)", "group": "gnss", "lat": 13.610202210403736, "lon": 115.13457601131928, "alt_km": 19984.151196489278, "timestamp": "2025-12-16T17:51:11.173057+00:00", "meta": {"OBJECT_NAME": "GPS BIIR-2  (PRN 13)", "OBJECT_ID": "1997-035A", "EPOCH": "2025-12-15T17:22:46.617024", "MEAN_MOTION": 2.00563689, "ECCENTRICITY": 0.00967819, "INCLINATION": 55.8967, "RA_OF_ASC_NODE": 105.7521, "ARG_OF_PERICENTER": 56.9926, "MEAN_ANOMALY": 303.9054, "EPHEMERIS_TYPE": 0, "CLASSIFICATION_TYPE": "U", "NORAD_CAT_ID": 24876, "ELEMENT_SET_NO": 999, "REV_AT_EPOCH": 20827, "BSTAR": 0, "MEAN_MOTION_DOT": -1.8e-07, "MEAN_MOTION_DDOT": 0}, "tle": {"line1": "1 24876U 97035A   25349.72415066 -.00000018  00000+0  00000+0 0  9993", "line2": "2 24876  55.8967 105.7521 0096781  56.9926 303.9054  2.00563689208270"}}, "geometry": {"type": "Point", "coordinates": [115.13457601131928, 13.610202210403736]}}, {"type": "Feature", "properties": {"norad_id": 26360, "name": "GPS BIIR-4  (PRN 20)", "group": "gnss", "lat": 50.86727608353494, "lon": 147.47194095798244, "alt_km": 20246.855903868425, "timestamp": "2025-12-16T17:51:11.173104+00:00", "meta": {"OBJECT_NAME": "GPS BIIR-4  (PRN 20)", "OBJECT_ID": "2000-025A", "EPOCH": "2025-12-15T19:56:08.503008", "MEAN_MOTION": 2.00567546, "ECCENTRICITY": 0.00388892, "INCLINATION": 55.047, "RA_OF_ASC_NODE": 26.7128, "ARG_OF_PERICENTER": 242.2901, "MEAN_ANOMALY": 287.4929, "EPHEMERIS_TYPE": 0, "CLASSIFICATION_TYPE": "U", "NORAD_CAT_ID": 26360, "ELEMENT_SET_NO": 999, "REV_AT_EPOCH": 18759, "BSTAR": 0, "MEAN_MOTION_DOT": -8.9e-07, "MEAN_MOTION_DDOT": 0}, "tle": {"line1": "1 26360U 00025A   25349.83065397 -.00000089  00000+0  00000+0 0  9994", "line2": "2 26360  55.0470  26.7128 0038889 242.2901 287.4929  2.00567546187598"}}, "geometry": {"type": "Point", "coordinates": [147.47194095798244, 50.86727608353494]}}, {"type": "Feature", "properties": {"norad_id": 26407, "name": "GPS BIIR-5  (PRN 22)", "group": "gnss", "lat": -39.53610515269889, "lon": -173.05021936385836, "alt_km": 19855.22424563137, "timestamp": "2025-12-16T17:51:11.173123+00:00", "meta": {"OBJECT_NAME": "GPS BIIR-5  (PRN 22)", "OBJECT_ID": "2000-040A", "EPOCH": "2025-12-15T19:56:10.961952", "MEAN_MOTION": 2.00568071, "ECCENTRICITY": 0.01258483, "INCLINATION": 54.8901, "RA_OF_ASC_NODE": 222.446, "ARG_OF_PERICENTER": 301.8641, "MEAN_ANOMALY": 67.563, "EPHEMERIS_TYPE": 0, "CLASSIFICATION_TYPE": "U", "NORAD_CAT_ID": 26407, "ELEMENT_SET_NO": 999, "REV_AT_EPOCH": 18627, "BSTAR": 0, "MEAN_MOTION_DOT": 5.6e-07, "MEAN_MOTION_DDOT": 0}, "tle": {"line1": "1 26407U 00040A   25349.83068243  .00000056  00000+0  00000+0 0  9999", "line2": "2 26407  54.8901 222.4460 0125848 301.8641  67.5630  2.00568071186279"}}, "geometry": {"type": "Point", "coordinates": [-173.05021936385836, -39.53610515269889]}}, {"type": "Feature", "properties": {"norad_id": 27663, "name": "GPS BIIR-8  (PRN 16)", "group": "gnss", "lat": 54.685787385651324, "lon": -55.384408353940366, "alt_km": 19847.286523095714, "timestamp": "2025-12-16T17:51:11.173139+00:00", "meta": {"OBJECT_NAME": "GPS BIIR-8  (PRN 16)", "OBJECT_ID": "2003-005A", "EPOCH": "2025-12-15T15:27:32.010336", "MEAN_MOTION": 2.00570814, "ECCENTRICITY": 0.01475727, "INCLINATION": 54.9227, "RA_OF_ASC_NODE": 222.2628, "ARG_OF_PERICENTER": 51.8406, "MEAN_ANOMALY": 318.7887, "EPHEMERIS_TYPE": 0, "CLASSIFICATION_TYPE": "U", "NORAD_CAT_ID": 27663, "ELEMENT_SET_NO": 999, "REV_AT_EPOCH": 16763, "BSTAR": 0, "MEAN_MOTION_DOT": 5.5e-07, "MEAN_MOTION_DDOT": 0}, "tle": {"line1": "1 27663U 03005A   25349.64412049  .00000055  00000+0  00000+0 0  9993", "line2": "2 27663  54.9227 222.2628 0147572  51.8406 318.7887  2.00570814167631"}}, "geometry": {"type": "Point", "coordinates": [-55.384408353940366, 54.685787385651324]}}, {"type": "Feature", "properties": {"norad_id": 28190, "name": "GPS BIIR-11 (PRN 19)", "group": "gnss", "lat": -47.70864921304724, "lon": 153.3691561184851, "alt_km": 20119.41988779094, "timestamp": "2025-12-16T17:51:11.173154+00:00", "meta": {"OBJECT_NAME": "GPS BIIR-11 (PRN 19)", "OBJECT_ID": "2004-009A", "EPOCH": "2025-12-14T15:49:47.343936", "MEAN_MOTION": 2.00560762, "ECCENTRICITY": 0.01083648, "INCLINATION": 54.9839, "RA_OF_ASC_NODE": 283.1415, "ARG_OF_PERICENTER": 167.6892, "MEAN_ANOMALY": 10.6801, "EPHEMERIS_TYPE": 0, "CLASSIFICATION_TYPE": "U", "NORAD_CAT_ID": 28190, "ELEMENT_SET_NO": 999, "REV_AT_EPOCH": 15924, "BSTAR": 0, "MEAN_MOTION_DOT": -7.9e-07, "MEAN_MOTION_DDOT": 0}, "tle": {"line1": "1 28190U 04009A   25348.65957574 -.00000079  00000+0  00000+0 0  9998", "line2": "2 28190  54.9839 283.1415 0108364 167.6892  10.6801  2.00560762159240"}}, "geometry": {"type": "Point", "coordinates": [153.3691561184851, -47.70864921304724]}}, {"type": "Feature", "properties": {"norad_id": 28474, "name": "GPS BIIR-13 (PRN 02)", "group": "gnss", "lat": -43.32311647115028, "lon": -68.67702688279539, "alt_km": 19734.815475317802, "timestamp": "2025-12-16T17:51:11.173168+00:00", "meta": {"OBJECT_NAME": "GPS BIIR-13 (PRN 02)", "OBJECT_ID": "2004-045A", "EPOCH": "2025-12-15T08:55:34.317408", "MEAN_MOTION": 2.00569721, "ECCENTRICITY": 0.01708177, "INCLINATION": 55.2393, "RA_OF_ASC_NODE": 332.2998, "ARG_OF_PERICENTER": 309.3676, "MEAN_ANOMALY": 83.5283, "EPHEMERIS_TYPE": 0, "CLASSIFICATION_TYPE": "U", "NORAD_CAT_ID": 28474, "ELEMENT_SET_NO": 999, "REV_AT_EPOCH": 15474, "BSTAR": 0, "MEAN_MOTION_DOT": -9.1e-07, "MEAN_MOTION_DDOT": 0}, "tle": {"line1": "1 28474U 04045A   25349.37192497 -.00000091  00000+0  00000+0 0  9992", "line2": "2 28474  55.2393 332.2998 0170817 309.3676  83.5283  2.00569721154740"}}, "geometry": {"type": "Point", "coordinates": [-68.67702688279539, -43.32311647115028]}}, {"type": "Feature", "properties": {"norad_id": 28874, "name": "GPS BIIRM-1 (PRN 17)", "group": "gnss", "lat": -54.21753426819015, "lon": 176.3948720289312, "alt_km": 19888.711469738693, "timestamp": "2025-12-16T17:51:11.173181+00:00", "meta": {"OBJECT_NAME": "GPS BIIRM-1 (PRN 17)", "OBJECT_ID": "2005-038A", "EPOCH": "2025-12-15T21:22:37.236864", "MEAN_MOTION": 2.00578274, "ECCENTRICITY": 0.01315557, "INCLINATION": 55.0291, "RA_OF_ASC_NODE": 280.574, "ARG_OF_PERICENTER": 293.6034, "MEAN_ANOMALY": 72.8859, "EPHEMERIS_TYPE": 0, "CLASSIFICATION_TYPE": "U", "NORAD_CAT_ID": 28874, "ELEMENT_SET_NO": 999, "REV_AT_EPOCH": 14816, "BSTAR": 0, "MEAN_MOTION_DOT": -6.8e-07, "MEAN_MOTION_DDOT": 0}, "tle": {"line1": "1 28874U 05038A   25349.89070876 -.00000068  00000+0  00000+0 0  9996", "line2": "2 28874  55.0291 280.5740 0131555 293.6034  72.8859  2.00578274148160"}}, "geometry": {"type": "Point", "coordinates": [176.3948720289312, -54.21753426819015]}}, {"type": "Feature", "properties": {"norad_id": 28899, "name": "INMARSAT 4-F2 (SOUTHPAN/PRN 122)", "group": "gnss", "lat": 4.862093868549987, "lon": 136.9092057184694, "alt_km": 35792.99794119304, "timestamp": "2025-12-16T17:51:11.173195+00:00", "meta": {"OBJECT_NAME": "INMARSAT 4-F2 (SOUTHPAN/PRN 122)", "OBJECT_ID": "2005-044A", "EPOCH": "2025-12-15T07:11:51.608832", "MEAN_MOTION": 1.00271463, "ECCENTRICITY": 0.00026564, "INCLINATION": 4.856, "RA_OF_ASC_NODE": 43.6985, "ARG_OF_PERICENTER": 223.8404, "MEAN_ANOMALY": 68.1363, "EPHEMERIS_TYPE": 0, "CLASSIFICATION_TYPE": "U", "NORAD_CAT_ID": 28899, "ELEMENT_SET_NO": 999, "REV_AT_EPOCH": 7367, "BSTAR": 0, "MEAN_MOTION_DOT": -2.43e-06, "MEAN_MOTION_DDOT": 0}, "tle": {"line1": "1 28899U 05044A   25349.29990288 -.00000243  00000+0  00000+0 0  9997", "line2": "2 28899   4.8560  43.6985 0002656 223.8404  68.1363  1.00271463 73672"}}, "geometry": {"type": "Point", "coordinates": [136.9092057184694, 4.862093868549987]}}, {"type": "Feature", "properties": {"norad_id": 29486, "name": "GPS BIIRM-2 (PRN 31)", "group": "gnss", "lat": 10.959850332818675, "lon": -29.317359691101988, "alt_km": 20297.16361560054, "timestamp": "2025-12-16T17:51:11.173209+00:00", "meta": {"OBJECT_NAME": "GPS BIIRM-2 (PRN 31)", "OBJECT_ID": "2006-042A", "EPOCH": "2025-12-15T18:26:47.569632", "MEAN_MOTION": 2.0055408, "ECCENTRICITY": 0.01073392, "INCLINATION": 54.6945, "RA_OF_ASC_NODE": 158.6205, "ARG_OF_PERICENTER": 52.0304, "MEAN_ANOMALY": 129.1611, "EPHEMERIS_TYPE": 0, "CLASSIFICATION_TYPE": "U", "NORAD_CAT_ID": 29486, "ELEMENT_SET_NO": 999, "REV_AT_EPOCH": 14071, "BSTAR": 0, "MEAN_MOTION_DOT": 9.5e-07, "MEAN_MOTION_DDOT": 0}, "tle": {"line1": "1 29486U 06042A   25349.76860613  .00000095  00000+0  00000+0 0  9993", "line2": "2 29486  54.6945 158.6205 0107339  52.0304 129.1611  2.00554080140716"}}, "geometry": {"type": "Point", "coordinates": [-29.317359691101988, 10.959850332818675]}}, {"type": "Feature", "properties": {"norad_id": 29601, "name": "GPS BIIRM-3 (PRN 12)", "group": "gnss", "lat": -34.628586482645886, "lon": 70.20056222171706, "alt_km": 20353.404703281903, "timestamp": "2025-12-16T17:51:11.173222+00:00", "meta": {"OBJECT_NAME": "GPS BIIRM-3 (PRN 12)", "OBJECT_ID": "2006-052A", "EPOCH": "2025-12-11T22:46:47.068032", "MEAN_MOTION": 2.00573524, "ECCENTRICITY": 0.00877389, "INCLINATION": 54.9707, "RA_OF_ASC_NODE": 221.4296, "ARG_OF_PERICENTER": 87.4221, "MEAN_ANOMALY": 273.6564, "EPHEMERIS_TYPE": 0, "CLASSIFICATION_TYPE": "U", "NORAD_CAT_ID": 29601, "ELEMENT_SET_NO": 999, "REV_AT_EPOCH": 13965, "BSTAR": 0, "MEAN_MOTION_DOT": 9e-08, "MEAN_MOTION_DDOT": 0}, "tle": {"line1": "1 29601U 06052A   25345.94915588  .00000009  00000+0  00000+0 0  9996", "line2": "2 29601  54.9707 221.4296 0087738  87.4221 273.6564  2.00573524139650"}}, "geometry": {"type": "Point", "coordinates": [70.20056222171706, -34.628586482645886]}}]}